[
  {
    "OBJECT_NAME": "STARLINK-30352",
    "OBJECT_ID": "23131E",
    "EPOCH": "2025-11-11T03:05:27.849984",
    "MEAN_MOTION": 15.02539102,
    "ECCENTRICITY": 0.0001244,
    "INCLINATION": 43.0032,
    "RA_OF_ASC_NODE": 95.6587,
    "ARG_OF_PERICENTER": 264.7309,
    "MEAN_ANOMALY": 95.3391,
    "EPHEMERIS_TYPE": 0,
    "CLASSIFICATION_TYPE": "U",
    "NORAD_CAT_ID": 57736,
    "ELEMENT_SET_NO": 999,
    "REV_AT_EPOCH": 12209,
    "BSTAR": 0.0,
    "MEAN_MOTION_DOT": -9.99e-06,
    "MEAN_MOTION_DDOT": 0.0,
    "TLE_LINE1": "1 57736U 23131E   25315.12879456 -.00000999  00000+0 -58870-4 0  9996",
    "TLE_LINE2": "2 57736  43.0032  95.6587 0001244 264.7309  95.3391 15.02539102122096",
    "COMMENT": "Grouped by shell and plane from TLE"
  },
  {
    "OBJECT_NAME": "STARLINK-30344",
    "OBJECT_ID": "23131F",
    "EPOCH": "2025-11-11T02:01:41.969856",
    "MEAN_MOTION": 15.02534181,
    "ECCENTRICITY": 0.0001314,
    "INCLINATION": 43.005,
    "RA_OF_ASC_NODE": 96.1984,
    "ARG_OF_PERICENTER": 266.6417,
    "MEAN_ANOMALY": 93.4275,
    "EPHEMERIS_TYPE": 0,
    "CLASSIFICATION_TYPE": "U",
    "NORAD_CAT_ID": 57737,
    "ELEMENT_SET_NO": 999,
    "REV_AT_EPOCH": 12208,
    "BSTAR": 0.00015015000000000002,
    "MEAN_MOTION_DOT": 1.825e-05,
    "MEAN_MOTION_DDOT": 0.0,
    "TLE_LINE1": "1 57737U 23131F   25315.08451354  .00001825  00000+0  15015-3 0  9995",
    "TLE_LINE2": "2 57737  43.0050  96.1984 0001314 266.6417  93.4275 15.02534181122084",
    "COMMENT": "Grouped by shell and plane from TLE"
  },
  {
    "OBJECT_NAME": "STARLINK-30351",
    "OBJECT_ID": "23131G",
    "EPOCH": "2025-11-11T02:32:05.774496",
    "MEAN_MOTION": 15.02547025,
    "ECCENTRICITY": 0.0001404,
    "INCLINATION": 43.0049,
    "RA_OF_ASC_NODE": 96.3523,
    "ARG_OF_PERICENTER": 263.9264,
    "MEAN_ANOMALY": 96.1418,
    "EPHEMERIS_TYPE": 0,
    "CLASSIFICATION_TYPE": "U",
    "NORAD_CAT_ID": 57738,
    "ELEMENT_SET_NO": 999,
    "REV_AT_EPOCH": 12208,
    "BSTAR": 0.00026377000000000003,
    "MEAN_MOTION_DOT": 3.362e-05,
    "MEAN_MOTION_DDOT": 0.0,
    "TLE_LINE1": "1 57738U 23131G   25315.10562239  .00003362  00000+0  26377-3 0  9995",
    "TLE_LINE2": "2 57738  43.0049  96.3523 0001404 263.9264  96.1418 15.02547025122084",
    "COMMENT": "Grouped by shell and plane from TLE"
  },
  {
    "OBJECT_NAME": "STARLINK-30364",
    "OBJECT_ID": "23131K",
    "EPOCH": "2025-11-11T02:08:05.908992",
    "MEAN_MOTION": 15.02548413,
    "ECCENTRICITY": 0.0001317,
    "INCLINATION": 43.0035,
    "RA_OF_ASC_NODE": 96.2254,
    "ARG_OF_PERICENTER": 272.2903,
    "MEAN_ANOMALY": 87.7788,
    "EPHEMERIS_TYPE": 0,
    "CLASSIFICATION_TYPE": "U",
    "NORAD_CAT_ID": 57741,
    "ELEMENT_SET_NO": 999,
    "REV_AT_EPOCH": 12208,
    "BSTAR": 6.5851e-07,
    "MEAN_MOTION_DOT": -1.95e-06,
    "MEAN_MOTION_DDOT": 0.0,
    "TLE_LINE1": "1 57741U 23131K   25315.08895728 -.00000195  00000+0  65851-6 0  9993",
    "TLE_LINE2": "2 57741  43.0035  96.2254 0001317 272.2903  87.7788 15.02548413122087",
    "COMMENT": "Grouped by shell and plane from TLE"
  },
  {
    "OBJECT_NAME": "STARLINK-30308",
    "OBJECT_ID": "23131L",
    "EPOCH": "2025-11-11T02:27:15.860160",
    "MEAN_MOTION": 15.02542053,
    "ECCENTRICITY": 0.0001223,
    "INCLINATION": 43.0031,
    "RA_OF_ASC_NODE": 96.3247,
    "ARG_OF_PERICENTER": 266.8534,
    "MEAN_ANOMALY": 93.2169,
    "EPHEMERIS_TYPE": 0,
    "CLASSIFICATION_TYPE": "U",
    "NORAD_CAT_ID": 57742,
    "ELEMENT_SET_NO": 999,
    "REV_AT_EPOCH": 12209,
    "BSTAR": 0.00010505,
    "MEAN_MOTION_DOT": 1.216e-05,
    "MEAN_MOTION_DDOT": 0.0,
    "TLE_LINE1": "1 57742U 23131L   25315.10226690  .00001216  00000+0  10505-3 0  9990",
    "TLE_LINE2": "2 57742  43.0031  96.3247 0001223 266.8534  93.2169 15.02542053122092",
    "COMMENT": "Grouped by shell and plane from TLE"
  },
  {
    "OBJECT_NAME": "STARLINK-30361",
    "OBJECT_ID": "23131M",
    "EPOCH": "2025-11-10T16:28:55.752096",
    "MEAN_MOTION": 15.02528928,
    "ECCENTRICITY": 6.26e-05,
    "INCLINATION": 43.0002,
    "RA_OF_ASC_NODE": 98.3634,
    "ARG_OF_PERICENTER": 261.5461,
    "MEAN_ANOMALY": 98.531,
    "EPHEMERIS_TYPE": 0,
    "CLASSIFICATION_TYPE": "U",
    "NORAD_CAT_ID": 57743,
    "ELEMENT_SET_NO": 999,
    "REV_AT_EPOCH": 12202,
    "BSTAR": 0.00016844,
    "MEAN_MOTION_DOT": 2.072e-05,
    "MEAN_MOTION_DDOT": 0.0,
    "TLE_LINE1": "1 57743U 23131M   25314.68675639  .00002072  00000+0  16844-3 0  9997",
    "TLE_LINE2": "2 57743  43.0002  98.3634 0000626 261.5461  98.5310 15.02528928122024",
    "COMMENT": "Grouped by shell and plane from TLE"
  },
  {
    "OBJECT_NAME": "STARLINK-30362",
    "OBJECT_ID": "23131P",
    "EPOCH": "2025-11-11T01:58:30.159264",
    "MEAN_MOTION": 15.02536783,
    "ECCENTRICITY": 0.0001415,
    "INCLINATION": 43.004,
    "RA_OF_ASC_NODE": 96.1752,
    "ARG_OF_PERICENTER": 273.727,
    "MEAN_ANOMALY": 86.3411,
    "EPHEMERIS_TYPE": 0,
    "CLASSIFICATION_TYPE": "U",
    "NORAD_CAT_ID": 57745,
    "ELEMENT_SET_NO": 999,
    "REV_AT_EPOCH": 12208,
    "BSTAR": 1.1755e-05,
    "MEAN_MOTION_DOT": -4.5e-07,
    "MEAN_MOTION_DDOT": 0.0,
    "TLE_LINE1": "1 57745U 23131P   25315.08229351 -.00000045  00000+0  11755-4 0  9996",
    "TLE_LINE2": "2 57745  43.0040  96.1752 0001415 273.7270  86.3411 15.02536783122086",
    "COMMENT": "Grouped by shell and plane from TLE"
  },
  {
    "OBJECT_NAME": "STARLINK-30350",
    "OBJECT_ID": "23131Q",
    "EPOCH": "2025-11-11T02:41:40.662816",
    "MEAN_MOTION": 15.02534795,
    "ECCENTRICITY": 9.85e-05,
    "INCLINATION": 43.0029,
    "RA_OF_ASC_NODE": 96.381,
    "ARG_OF_PERICENTER": 283.7408,
    "MEAN_ANOMALY": 76.3324,
    "EPHEMERIS_TYPE": 0,
    "CLASSIFICATION_TYPE": "U",
    "NORAD_CAT_ID": 57746,
    "ELEMENT_SET_NO": 999,
    "REV_AT_EPOCH": 12208,
    "BSTAR": 0.00018436,
    "MEAN_MOTION_DOT": 2.288e-05,
    "MEAN_MOTION_DDOT": 0.0,
    "TLE_LINE1": "1 57746U 23131Q   25315.11227619  .00002288  00000+0  18436-3 0  9998",
    "TLE_LINE2": "2 57746  43.0029  96.3810 0000985 283.7408  76.3324 15.02534795122089",
    "COMMENT": "Grouped by shell and plane from TLE"
  },
  {
    "OBJECT_NAME": "STARLINK-30307",
    "OBJECT_ID": "23131R",
    "EPOCH": "2025-11-11T02:00:06.229152",
    "MEAN_MOTION": 15.0252931,
    "ECCENTRICITY": 0.0001281,
    "INCLINATION": 43.0034,
    "RA_OF_ASC_NODE": 96.1822,
    "ARG_OF_PERICENTER": 263.6694,
    "MEAN_ANOMALY": 96.4002,
    "EPHEMERIS_TYPE": 0,
    "CLASSIFICATION_TYPE": "U",
    "NORAD_CAT_ID": 57747,
    "ELEMENT_SET_NO": 999,
    "REV_AT_EPOCH": 12208,
    "BSTAR": 0.00011186,
    "MEAN_MOTION_DOT": 1.307e-05,
    "MEAN_MOTION_DDOT": 0.0,
    "TLE_LINE1": "1 57747U 23131R   25315.08340543  .00001307  00000+0  11186-3 0  9993",
    "TLE_LINE2": "2 57747  43.0034  96.1822 0001281 263.6694  96.4002 15.02529310122084",
    "COMMENT": "Grouped by shell and plane from TLE"
  },
  {
    "OBJECT_NAME": "STARLINK-30356",
    "OBJECT_ID": "23131S",
    "EPOCH": "2025-11-10T16:14:32.635104",
    "MEAN_MOTION": 15.02549105,
    "ECCENTRICITY": 9.98e-05,
    "INCLINATION": 43.0025,
    "RA_OF_ASC_NODE": 98.2908,
    "ARG_OF_PERICENTER": 270.7066,
    "MEAN_ANOMALY": 89.3662,
    "EPHEMERIS_TYPE": 0,
    "CLASSIFICATION_TYPE": "U",
    "NORAD_CAT_ID": 57748,
    "ELEMENT_SET_NO": 999,
    "REV_AT_EPOCH": 12202,
    "BSTAR": 0.00014248,
    "MEAN_MOTION_DOT": 1.722e-05,
    "MEAN_MOTION_DDOT": 0.0,
    "TLE_LINE1": "1 57748U 23131S   25314.67676661  .00001722  00000+0  14248-3 0  9994",
    "TLE_LINE2": "2 57748  43.0025  98.2908 0000998 270.7066  89.3662 15.02549105122020",
    "COMMENT": "Grouped by shell and plane from TLE"
  },
  {
    "OBJECT_NAME": "STARLINK-30366",
    "OBJECT_ID": "23131T",
    "EPOCH": "2025-11-10T10:58:36.056928",
    "MEAN_MOTION": 15.02531191,
    "ECCENTRICITY": 0.0001227,
    "INCLINATION": 43.0038,
    "RA_OF_ASC_NODE": 99.2236,
    "ARG_OF_PERICENTER": 263.4205,
    "MEAN_ANOMALY": 96.6498,
    "EPHEMERIS_TYPE": 0,
    "CLASSIFICATION_TYPE": "U",
    "NORAD_CAT_ID": 57749,
    "ELEMENT_SET_NO": 999,
    "REV_AT_EPOCH": 12199,
    "BSTAR": 0.0,
    "MEAN_MOTION_DOT": -2.94e-06,
    "MEAN_MOTION_DDOT": 0.0,
    "TLE_LINE1": "1 57749U 23131T   25314.45736177 -.00000294  00000+0 -67042-5 0  9997",
    "TLE_LINE2": "2 57749  43.0038  99.2236 0001227 263.4205  96.6498 15.02531191121999",
    "COMMENT": "Grouped by shell and plane from TLE"
  },
  {
    "OBJECT_NAME": "STARLINK-30357",
    "OBJECT_ID": "23131U",
    "EPOCH": "2025-11-10T16:00:10.519488",
    "MEAN_MOTION": 15.02531928,
    "ECCENTRICITY": 0.0001214,
    "INCLINATION": 43.0039,
    "RA_OF_ASC_NODE": 98.2159,
    "ARG_OF_PERICENTER": 272.814,
    "MEAN_ANOMALY": 87.2564,
    "EPHEMERIS_TYPE": 0,
    "CLASSIFICATION_TYPE": "U",
    "NORAD_CAT_ID": 57750,
    "ELEMENT_SET_NO": 999,
    "REV_AT_EPOCH": 12202,
    "BSTAR": 5.1546000000000004e-05,
    "MEAN_MOTION_DOT": 4.93e-06,
    "MEAN_MOTION_DDOT": 0.0,
    "TLE_LINE1": "1 57750U 23131U   25314.66678842  .00000493  00000+0  51546-4 0  9996",
    "TLE_LINE2": "2 57750  43.0039  98.2159 0001214 272.8140  87.2564 15.02531928122026",
    "COMMENT": "Grouped by shell and plane from TLE"
  },
  {
    "OBJECT_NAME": "STARLINK-30368",
    "OBJECT_ID": "23131W",
    "EPOCH": "2025-11-10T16:38:30.851232",
    "MEAN_MOTION": 15.02534003,
    "ECCENTRICITY": 0.0001367,
    "INCLINATION": 43.0026,
    "RA_OF_ASC_NODE": 98.3779,
    "ARG_OF_PERICENTER": 271.3356,
    "MEAN_ANOMALY": 88.733,
    "EPHEMERIS_TYPE": 0,
    "CLASSIFICATION_TYPE": "U",
    "NORAD_CAT_ID": 57752,
    "ELEMENT_SET_NO": 999,
    "REV_AT_EPOCH": 12202,
    "BSTAR": 0.0,
    "MEAN_MOTION_DOT": -3.79e-06,
    "MEAN_MOTION_DDOT": 0.0,
    "TLE_LINE1": "1 57752U 23131W   25314.69341263 -.00000379  00000+0 -12948-4 0  9993",
    "TLE_LINE2": "2 57752  43.0026  98.3779 0001367 271.3356  88.7330 15.02534003122029",
    "COMMENT": "Grouped by shell and plane from TLE"
  }
]